[{"OBJECT_NAME":"KINEIS-5E","OBJECT_ID":"2024-219C","EPOCH":"2026-03-03T05:25:55.291296","MEAN_MOTION":14.7231712,"ECCENTRICITY":0.000253,"INCLINATION":97.9671,"RA_OF_ASC_NODE":223.9853,"ARG_OF_PERICENTER":136.0262,"MEAN_ANOMALY":224.1147,"EPHEMERIS_TYPE":0,"CLASSIFICATION_TYPE":"U","NORAD_CAT_ID":62083,"ELEMENT_SET_NO":999,"REV_AT_EPOCH":6817,"BSTAR":6.274e-5,"MEAN_MOTION_DOT":3.48e-6,"MEAN_MOTION_DDOT":0},{"OBJECT_NAME":"KINEIS-5A","OBJECT_ID":"2024-219D","EPOCH":"2026-03-02T17:08:14.477280","MEAN_MOTION":14.72184926,"ECCENTRICITY":0.00011765,"INCLINATION":97.9801,"RA_OF_ASC_NODE":223.5793,"ARG_OF_PERICENTER":241.4857,"MEAN_ANOMALY":118.6232,"EPHEMERIS_TYPE":0,"CLASSIFICATION_TYPE":"U","NORAD_CAT_ID":62084,"ELEMENT_SET_NO":999,"REV_AT_EPOCH":6810,"BSTAR":0.00016870028,"MEAN_MOTION_DOT":1.014e-5,"MEAN_MOTION_DDOT":0},{"OBJECT_NAME":"KINEIS-5B","OBJECT_ID":"2024-219E","EPOCH":"2026-03-03T04:18:26.036064","MEAN_MOTION":14.78040858,"ECCENTRICITY":0.000107,"INCLINATION":97.993,"RA_OF_ASC_NODE":226.7124,"ARG_OF_PERICENTER":217.5406,"MEAN_ANOMALY":142.573,"EPHEMERIS_TYPE":0,"CLASSIFICATION_TYPE":"U","NORAD_CAT_ID":62085,"ELEMENT_SET_NO":999,"REV_AT_EPOCH":6834,"BSTAR":0.00030711,"MEAN_MOTION_DOT":2.166e-5,"MEAN_MOTION_DDOT":0},{"OBJECT_NAME":"KINEIS-2C","OBJECT_ID":"2025-028B","EPOCH":"2026-03-03T03:14:15.562176","MEAN_MOTION":14.7229326,"ECCENTRICITY":0.0001411,"INCLINATION":98.0287,"RA_OF_ASC_NODE":117.3832,"ARG_OF_PERICENTER":43.4084,"MEAN_ANOMALY":316.7234,"EPHEMERIS_TYPE":0,"CLASSIFICATION_TYPE":"U","NORAD_CAT_ID":62929,"ELEMENT_SET_NO":999,"REV_AT_EPOCH":5700,"BSTAR":0.00024257,"MEAN_MOTION_DOT":1.483e-5,"MEAN_MOTION_DDOT":0},{"OBJECT_NAME":"KINEIS-2D","OBJECT_ID":"2025-028C","EPOCH":"2026-03-03T03:01:51.470688","MEAN_MOTION":14.75311692,"ECCENTRICITY":0.0003654,"INCLINATION":97.9424,"RA_OF_ASC_NODE":116.5767,"ARG_OF_PERICENTER":163.2423,"MEAN_ANOMALY":196.8907,"EPHEMERIS_TYPE":0,"CLASSIFICATION_TYPE":"U","NORAD_CAT_ID":62930,"ELEMENT_SET_NO":999,"REV_AT_EPOCH":5707,"BSTAR":0.00031652,"MEAN_MOTION_DOT":2.095e-5,"MEAN_MOTION_DDOT":0},{"OBJECT_NAME":"KINEIS-2E","OBJECT_ID":"2025-028D","EPOCH":"2026-03-03T02:59:35.326752","MEAN_MOTION":14.76689034,"ECCENTRICITY":0.000182,"INCLINATION":97.9093,"RA_OF_ASC_NODE":115.9736,"ARG_OF_PERICENTER":116.2076,"MEAN_ANOMALY":243.9321,"EPHEMERIS_TYPE":0,"CLASSIFICATION_TYPE":"U","NORAD_CAT_ID":62931,"ELEMENT_SET_NO":999,"REV_AT_EPOCH":5712,"BSTAR":0.00024661,"MEAN_MOTION_DOT":1.675e-5,"MEAN_MOTION_DDOT":0},{"OBJECT_NAME":"KINEIS-2A","OBJECT_ID":"2025-028E","EPOCH":"2026-03-03T03:53:50.347392","MEAN_MOTION":14.72079334,"ECCENTRICITY":0.0003272,"INCLINATION":98.07,"RA_OF_ASC_NODE":117.7131,"ARG_OF_PERICENTER":216.9574,"MEAN_ANOMALY":143.1408,"EPHEMERIS_TYPE":0,"CLASSIFICATION_TYPE":"U","NORAD_CAT_ID":62932,"ELEMENT_SET_NO":999,"REV_AT_EPOCH":5700,"BSTAR":0.00023412,"MEAN_MOTION_DOT":1.422e-5,"MEAN_MOTION_DDOT":0},{"OBJECT_NAME":"KINEIS-2B","OBJECT_ID":"2025-028G","EPOCH":"2026-03-03T02:52:09.987456","MEAN_MOTION":14.73091189,"ECCENTRICITY":0.0004783,"INCLINATION":97.9806,"RA_OF_ASC_NODE":116.8624,"ARG_OF_PERICENTER":124.1659,"MEAN_ANOMALY":236.0003,"EPHEMERIS_TYPE":0,"CLASSIFICATION_TYPE":"U","NORAD_CAT_ID":62934,"ELEMENT_SET_NO":999,"REV_AT_EPOCH":5704,"BSTAR":0.00024584,"MEAN_MOTION_DOT":1.533e-5,"MEAN_MOTION_DDOT":0},{"OBJECT_NAME":"KINEIS-4E","OBJECT_ID":"2025-056A","EPOCH":"2026-03-03T03:53:28.273920","MEAN_MOTION":14.72325221,"ECCENTRICITY":5.33e-5,"INCLINATION":97.9931,"RA_OF_ASC_NODE":188.5777,"ARG_OF_PERICENTER":194.9,"MEAN_ANOMALY":165.2192,"EPHEMERIS_TYPE":0,"CLASSIFICATION_TYPE":"U","NORAD_CAT_ID":63300,"ELEMENT_SET_NO":999,"REV_AT_EPOCH":5152,"BSTAR":0.00044583,"MEAN_MOTION_DOT":2.771e-5,"MEAN_MOTION_DDOT":0},{"OBJECT_NAME":"KINEIS-4C","OBJECT_ID":"2025-056B","EPOCH":"2026-03-03T04:11:24.971712","MEAN_MOTION":14.72366561,"ECCENTRICITY":7.8e-5,"INCLINATION":97.999,"RA_OF_ASC_NODE":188.7527,"ARG_OF_PERICENTER":49.0824,"MEAN_ANOMALY":311.0451,"EPHEMERIS_TYPE":0,"CLASSIFICATION_TYPE":"U","NORAD_CAT_ID":63301,"ELEMENT_SET_NO":999,"REV_AT_EPOCH":5153,"BSTAR":0.00045932,"MEAN_MOTION_DOT":2.859e-5,"MEAN_MOTION_DDOT":0},{"OBJECT_NAME":"KINEIS-4D","OBJECT_ID":"2025-056C","EPOCH":"2026-03-03T04:18:37.480608","MEAN_MOTION":14.72337778,"ECCENTRICITY":5.85e-5,"INCLINATION":97.9973,"RA_OF_ASC_NODE":188.7364,"ARG_OF_PERICENTER":333.6347,"MEAN_ANOMALY":26.483,"EPHEMERIS_TYPE":0,"CLASSIFICATION_TYPE":"U","NORAD_CAT_ID":63302,"ELEMENT_SET_NO":999,"REV_AT_EPOCH":5153,"BSTAR":0.00049603,"MEAN_MOTION_DOT":3.089e-5,"MEAN_MOTION_DDOT":0},{"OBJECT_NAME":"KINEIS-4A","OBJECT_ID":"2025-056D","EPOCH":"2026-03-01T12:19:37.802208","MEAN_MOTION":14.72266272,"ECCENTRICITY":0.00016067,"INCLINATION":97.994,"RA_OF_ASC_NODE":187.0254,"ARG_OF_PERICENTER":279.0332,"MEAN_ANOMALY":81.0694,"EPHEMERIS_TYPE":0,"CLASSIFICATION_TYPE":"U","NORAD_CAT_ID":63303,"ELEMENT_SET_NO":999,"REV_AT_EPOCH":5128,"BSTAR":-0.00013071191,"MEAN_MOTION_DOT":-8.74e-6,"MEAN_MOTION_DDOT":0},{"OBJECT_NAME":"KINEIS-4B","OBJECT_ID":"2025-056E","EPOCH":"2026-03-02T15:39:00.762624","MEAN_MOTION":14.7234419,"ECCENTRICITY":0.00018003,"INCLINATION":97.9965,"RA_OF_ASC_NODE":188.1908,"ARG_OF_PERICENTER":217.7481,"MEAN_ANOMALY":142.3601,"EPHEMERIS_TYPE":0,"CLASSIFICATION_TYPE":"U","NORAD_CAT_ID":63304,"ELEMENT_SET_NO":999,"REV_AT_EPOCH":5144,"BSTAR":0.00043767612,"MEAN_MOTION_DOT":2.72e-5,"MEAN_MOTION_DDOT":0}]
