KINEIS-5E               
1 62083U 24219C   26062.22633439  .00000348  00000+0  62740-4 0  9992
2 62083  97.9671 223.9853 0002530 136.0262 224.1147 14.72317120 68173
KINEIS-5A               
1 62084U 24219D   26061.71405645  .00001014  00000+0  16870-3 0  9995
2 62084  97.9801 223.5793 0001176 241.4857 118.6232 14.72184926 68105
KINEIS-5B               
1 62085U 24219E   26062.17946801  .00002166  00000+0  30711-3 0  9990
2 62085  97.9930 226.7124 0001070 217.5406 142.5730 14.78040858 68345
KINEIS-2C               
1 62929U 25028B   26062.13490234  .00001483  00000+0  24257-3 0  9995
2 62929  98.0287 117.3832 0001411  43.4084 316.7234 14.72293260 57003
KINEIS-2D               
1 62930U 25028C   26062.12629017  .00002095  00000+0  31652-3 0  9996
2 62930  97.9424 116.5767 0003654 163.2423 196.8907 14.75311692 57077
KINEIS-2E               
1 62931U 25028D   26062.12471443  .00001675  00000+0  24661-3 0  9990
2 62931  97.9093 115.9736 0001820 116.2076 243.9321 14.76689034 57123
KINEIS-2A               
1 62932U 25028E   26062.16238828  .00001422  00000+0  23412-3 0  9996
2 62932  98.0700 117.7131 0003272 216.9574 143.1408 14.72079334 57000
KINEIS-2B               
1 62934U 25028G   26062.11956004  .00001533  00000+0  24584-3 0  9990
2 62934  97.9806 116.8624 0004783 124.1659 236.0003 14.73091189 57046
KINEIS-4E               
1 63300U 25056A   26062.16213280  .00002771  00000+0  44583-3 0  9992
2 63300  97.9931 188.5777 0000533 194.9000 165.2192 14.72325221 51527
KINEIS-4C               
1 63301U 25056B   26062.17459458  .00002859  00000+0  45932-3 0  9999
2 63301  97.9990 188.7527 0000780  49.0824 311.0451 14.72366561 51538
KINEIS-4D               
1 63302U 25056C   26062.17960047  .00003089  00000+0  49603-3 0  9996
2 63302  97.9973 188.7364 0000585 333.6347  26.4830 14.72337778 51530
KINEIS-4A               
1 63303U 25056D   26060.51363197 -.00000874  00000+0 -13071-3 0  9997
2 63303  97.9940 187.0254 0001606 279.0332  81.0694 14.72266272 51284
KINEIS-4B               
1 63304U 25056E   26061.65209216  .00002720  00000+0  43768-3 0  9991
2 63304  97.9965 188.1908 0001800 217.7481 142.3601 14.72344190 51443
